{"type": "FeatureCollection", "features": [{"type": "Feature", "properties": {"rank": 1, "openness": -0.034, "crosses": ["R/C", "K/W", "P/S", "P/N", "R/S"], "from_deg": 352, "toward_deg": 172, "wind": "N"}, "geometry": {"type": "MultiLineString", "coordinates": [[[72.79082394262957, 18.965962614296263], [72.79125987460172, 18.969208449579167]], [[72.81082984206559, 19.114844017773848], [72.82454373810673, 19.2168088542252]]]}}, {"type": "Feature", "properties": {"rank": 2, "openness": -0.03, "crosses": ["B", "E", "F/S", "F/N", "G/N", "H/E", "K/E", "P/S", "P/N", "R/S"], "from_deg": 352, "toward_deg": 172, "wind": "N"}, "geometry": {"type": "LineString", "coordinates": [[72.83868826478312, 18.960137292747], [72.87248103024378, 19.210981910205977]]}}, {"type": "Feature", "properties": {"rank": 3, "openness": -0.019, "crosses": ["N", "S", "T", "M/E"], "from_deg": 352, "toward_deg": 172, "wind": "N"}, "geometry": {"type": "LineString", "coordinates": [[72.94369031344348, 19.017080286663568], [72.966698140239, 19.187096145775282]]}}], "meta": {"season": "winter", "wind": {"from_deg": 352, "toward_deg": 172, "from_compass": "N", "mean_speed_ms": 2.75, "n_hours": 17328, "rose": {"N": 10.5, "NNE": 6.9, "NE": 12.5, "ENE": 4.6, "E": 2.0, "ESE": 0.7, "SE": 0.5, "SSE": 0.4, "S": 0.3, "SSW": 0.3, "SW": 0.5, "WSW": 1.3, "W": 4.4, "WNW": 12.6, "NW": 22.9, "NNW": 19.8}}}}