{"type": "FeatureCollection", "features": [{"type": "Feature", "properties": {"rank": 1, "openness": -0.036, "crosses": ["R/C", "T", "R/S"], "from_deg": 238, "toward_deg": 58, "wind": "WSW"}, "geometry": {"type": "LineString", "coordinates": [[72.82856401203867, 19.246401026459463], [72.98574831987459, 19.155564763879926]]}}, {"type": "Feature", "properties": {"rank": 2, "openness": -0.03, "crosses": ["S", "T", "P/S", "P/N"], "from_deg": 238, "toward_deg": 58, "wind": "WSW"}, "geometry": {"type": "LineString", "coordinates": [[72.80346922020681, 19.207165217044064], [72.96413049241905, 19.11431962375136]]}}, {"type": "Feature", "properties": {"rank": 3, "openness": -0.029, "crosses": ["F/S", "F/N", "G/N", "M/W"], "from_deg": 238, "toward_deg": 58, "wind": "WSW"}, "geometry": {"type": "LineString", "coordinates": [[72.80771844409227, 19.04355614601397], [72.90794256846607, 18.985592851279204]]}}], "meta": {"season": "monsoon", "wind": {"from_deg": 238, "toward_deg": 58, "from_compass": "WSW", "mean_speed_ms": 3.91, "n_hours": 17568, "rose": {"N": 0.3, "NNE": 0.3, "NE": 0.3, "ENE": 0.2, "E": 0.3, "ESE": 0.4, "SE": 1.1, "SSE": 3.1, "S": 7.6, "SSW": 16.8, "SW": 33.7, "WSW": 22.2, "W": 7.7, "WNW": 3.7, "NW": 1.6, "NNW": 0.6}}}}