{"type": "FeatureCollection", "features": [{"type": "Feature", "properties": {"rank": 1, "openness": -0.062, "crosses": ["R/C", "R/N", "P/N"], "from_deg": 303, "toward_deg": 123, "wind": "WNW"}, "geometry": {"type": "LineString", "coordinates": [[72.7705932059157, 19.206734612846713], [72.87371264149276, 19.27210020386414]]}}, {"type": "Feature", "properties": {"rank": 2, "openness": -0.039, "crosses": ["R/C", "P/N", "R/S"], "from_deg": 303, "toward_deg": 123, "wind": "WNW"}, "geometry": {"type": "LineString", "coordinates": [[72.77351576495154, 19.153386691548608], [72.91313624577973, 19.241884049129762]]}}, {"type": "Feature", "properties": {"rank": 3, "openness": -0.032, "crosses": ["T", "K/W", "P/S", "P/N"], "from_deg": 303, "toward_deg": 123, "wind": "WNW"}, "geometry": {"type": "LineString", "coordinates": [[72.80806749989904, 19.120109684275587], [72.94490341957159, 19.206820558155634]]}}], "meta": {"season": "summer", "wind": {"from_deg": 303, "toward_deg": 123, "from_compass": "WNW", "mean_speed_ms": 3.09, "n_hours": 13248, "rose": {"N": 4.4, "NNE": 2.5, "NE": 2.3, "ENE": 1.4, "E": 0.8, "ESE": 0.5, "SE": 0.7, "SSE": 1.3, "S": 2.1, "SSW": 2.2, "SW": 5.0, "WSW": 9.3, "W": 17.4, "WNW": 24.9, "NW": 16.8, "NNW": 8.2}}}}