{"type": "FeatureCollection", "features": [{"type": "Feature", "id": "A", "properties": {"id": "A", "display_name": "A Ward", "area_km2": 11.21, "ndbi": -0.028, "lst_c": 37.02, "heat_score": 0.166, "priority_score": 0.512, "priority_rank": 15, "seasons": {"winter": {"score": 14.2, "rank": 21, "rec": "Critical. Prioritise new ventilation corridors and protect remaining open/green land; strong upwind obstruction control."}, "summer": {"score": 14.2, "rank": 21, "rec": "Critical. Prioritise new ventilation corridors and protect remaining open/green land; strong upwind obstruction control."}, "monsoon": {"score": 44.7, "rank": 2, "rec": "Well ventilated. Protect existing open space and wind passages; no new obstruction in or upwind of this ward."}}}, "geometry": {"type": "Polygon", "coordinates": [[[72.84680759496636, 18.948028844156052], [72.84365916430811, 18.935521060330885], [72.84345331580519, 18.935385027657983], [72.84325135941589, 18.935605011283947], [72.8429472668356, 18.935574612009347], [72.84424254505717, 18.929005106187077], [72.84299133623286, 18.92893568908969], [72.84226651534044, 18.933111944634742], [72.8412601599236, 18.933374233445925], [72.84001174298301, 18.932760701823604], [72.84027015424182, 18.93093363286853], [72.83752810803381, 18.928976886748124], [72.83694133473942, 18.92939133118988], [72.837211240559, 18.92872438635596], [72.8362369988404, 18.928126717670292], [72.83686484055654, 18.927302004566457], [72.8379374393541, 18.927718918799577], [72.83839706918172, 18.926782914743274], [72.84039523141217, 18.927678372796937], [72.83788890872944, 18.9264659517639], [72.84042520581914, 18.92124766832896], [72.84432060185623, 18.925258743202203], [72.84469263575485, 18.9261291560821], [72.84463645973656, 18.925280646137473], [72.83951834532058, 18.920252506526175], [72.83809842447583, 18.920418305451985], [72.834870953868, 18.92359996150073], [72.83426448980939, 18.92314612498675], [72.83495407145213, 18.922919287489687], [72.83490706673189, 18.92195608085729], [72.833650801499, 18.92180156908461], [72.83208384018697, 18.918374206098054], [72.83283356110466, 18.91811080966497], [72.83206025930096, 18.9181222267036], [72.83185723346375, 18.917364301616985], [72.82984167784092, 18.91602482613199], [72.83020473806314, 18.915393863142146], [72.83126331512213, 18.91503601658636], [72.8294161173692, 18.9129006376537], [72.82692627284133, 18.911199876014717], [72.82502858792134, 18.907338165153], [72.82229634582278, 18.91025230694667], [72.81964780888386, 18.907159292087922], [72.81860287300914, 18.906445965037], [72.8178737590565, 18.907061511663716], [72.81737246105837, 18.905251733682224], [72.81784408437603, 18.904318056711226], [72.81745038953814, 18.902999284917833], [72.8179538376229, 18.90274242543255], [72.81742556359781, 18.90231981654759], [72.81878291197751, 18.90229492889462], [72.81747203426715, 18.902253034819623], [72.81726953638218, 18.900604615126976], [72.81326358008698, 18.895273501856604], [72.81246975802448, 18.894917626324776], [72.81097128322341, 18.895188709339827], [72.80988398152941, 18.893997899998357], [72.80914725359703, 18.894117284891248], [72.80647686283723, 18.896411577529694], [72.80453132000753, 18.899262927125825], [72.80357840503201, 18.90358191492227], [72.80398751493883, 18.908084545029514], [72.80484635511094, 18.91021155873657], [72.80751743856474, 18.914027445715966], [72.82194825931897, 18.93025191422177], [72.82386584498698, 18.935812745092825], [72.8235496863412, 18.941464564041492], [72.82882128001206, 18.94329422815635], [72.83495927016058, 18.948455221044554], [72.83776109771298, 18.949065165515762], [72.84150367087838, 18.948991194539587], [72.84680759496636, 18.948028844156052]]]}}, {"type": "Feature", "id": "B", "properties": {"id": "B", "display_name": "B Ward", "area_km2": 2.66, "ndbi": -0.026, "lst_c": 41.29, "heat_score": 0.97, "priority_score": 0.898, "priority_rank": 1, "seasons": {"winter": {"score": 16.2, "rank": 20, "rec": "Critical. Prioritise new ventilation corridors and protect remaining open/green land; strong upwind obstruction control."}, "summer": {"score": 17.3, "rank": 20, "rec": "Critical. Prioritise new ventilation corridors and protect remaining open/green land; strong upwind obstruction control."}, "monsoon": {"score": 42.0, "rank": 4, "rec": "Well ventilated. Protect existing open space and wind passages; no new obstruction in or upwind of this ward."}}}, "geometry": {"type": "Polygon", "coordinates": [[[72.84937556794543, 18.9633954117145], [72.8479999662002, 18.957959028572652], [72.84960558069263, 18.95737852402486], [72.85058074507401, 18.957909880449638], [72.85106082063344, 18.95876161767972], [72.85082383017956, 18.957736415350443], [72.84980619366888, 18.957266267062902], [72.84951838280736, 18.955870275537876], [72.84910496124675, 18.95596243360923], [72.84943518450696, 18.957301625130466], [72.84795472419997, 18.957772014173315], [72.84632849957904, 18.9520059141983], [72.8466922703934, 18.951949328921025], [72.84618545212784, 18.950569723083994], [72.84680759496636, 18.948028844156052], [72.84230550202437, 18.948935515577674], [72.83776109771298, 18.949065165515762], [72.83495927016058, 18.948455221044554], [72.83366301412812, 18.947470303062246], [72.83176734047304, 18.95392670992551], [72.83218572419092, 18.955054349875862], [72.831745661604, 18.95944082095421], [72.83198969160995, 18.961872856473573], [72.83737570224154, 18.96259355035455], [72.83881613726003, 18.965107811805254], [72.83944136179316, 18.964469819666505], [72.84530055258368, 18.963277613715483], [72.84662396806343, 18.96365536684156], [72.84760525654566, 18.963448849649367], [72.84767160168454, 18.963750849803105], [72.84937556794543, 18.9633954117145]]]}}, {"type": "Feature", "id": "C", "properties": {"id": "C", "display_name": "C Ward", "area_km2": 1.91, "ndbi": -0.013, "lst_c": 40.15, "heat_score": 0.755, "priority_score": 0.855, "priority_rank": 3, "seasons": {"winter": {"score": 4.6, "rank": 24, "rec": "Critical. Prioritise new ventilation corridors and protect remaining open/green land; strong upwind obstruction control."}, "summer": {"score": 4.4, "rank": 24, "rec": "Critical. Prioritise new ventilation corridors and protect remaining open/green land; strong upwind obstruction control."}, "monsoon": {"score": 29.6, "rank": 18, "rec": "Poor. Create or widen green/open-space corridors aligned with the prevailing wind; restrictive on tall, wide built mass upwind."}}}, "geometry": {"type": "Polygon", "coordinates": [[[72.83366301412812, 18.947470303062246], [72.82882128001206, 18.94329422815635], [72.8235496863412, 18.941464564041492], [72.82171657968432, 18.945725506726763], [72.81892459943565, 18.94945642374751], [72.8202607221384, 18.95065082737242], [72.82541542276546, 18.9531408113145], [72.82509687622309, 18.95445823374677], [72.82562384908582, 18.95502658376031], [72.82503173482885, 18.955658853155064], [72.82615869360853, 18.95817066011456], [72.82624706730032, 18.961687999430815], [72.83198969160995, 18.961872856473573], [72.831745661604, 18.95944082095421], [72.83218572419092, 18.955054349875862], [72.83176734047304, 18.95392670992551], [72.83366301412812, 18.947470303062246]]]}}, {"type": "Feature", "id": "D", "properties": {"id": "D", "display_name": "D Ward", "area_km2": 8.22, "ndbi": -0.023, "lst_c": 36.28, "heat_score": 0.026, "priority_score": 0.455, "priority_rank": 17, "seasons": {"winter": {"score": 13.9, "rank": 22, "rec": "Critical. Prioritise new ventilation corridors and protect remaining open/green land; strong upwind obstruction control."}, "summer": {"score": 11.6, "rank": 22, "rec": "Critical. Prioritise new ventilation corridors and protect remaining open/green land; strong upwind obstruction control."}, "monsoon": {"score": 33.7, "rank": 14, "rec": "Moderate. Encourage street-level permeability; avoid closing key links upwind."}}}, "geometry": {"type": "Polygon", "coordinates": [[[72.82624706730032, 18.961687999430815], [72.82615869360853, 18.95817066011456], [72.82503173482885, 18.955658853155064], [72.82562384908582, 18.95502658376031], [72.82509687622309, 18.95445823374677], [72.82541542276546, 18.9531408113145], [72.8202607221384, 18.95065082737242], [72.81892459943565, 18.94945642374751], [72.81770439528015, 18.95083242651884], [72.81386061062472, 18.953462520847854], [72.8105841593076, 18.954701176672483], [72.80808180789126, 18.954957149409648], [72.80670245696534, 18.95337964724566], [72.8074299151657, 18.953232350786323], [72.80552726256612, 18.95222278157597], [72.80471310747517, 18.95122572076905], [72.80444735532566, 18.951455170450778], [72.80225878672334, 18.948880392466307], [72.80126173485678, 18.948284889875204], [72.80034021216385, 18.94830362836734], [72.79913453288698, 18.947403779598826], [72.79808429157553, 18.947464176504607], [72.79768174324487, 18.946126900416925], [72.79556358822352, 18.943807669860252], [72.79519708130191, 18.94169448032011], [72.79422116180224, 18.93965855720544], [72.79477598210221, 18.939696495511686], [72.79330150052597, 18.939212059493357], [72.79259689826091, 18.939653802300437], [72.79349018382521, 18.943474443057884], [72.79336515151724, 18.944248918180783], [72.79204726087994, 18.945701724717917], [72.79155678146928, 18.94888220998876], [72.79189002813675, 18.94890805363785], [72.79440767282588, 18.954466588809773], [72.799405789315, 18.962510356419642], [72.80177881250934, 18.97254045556154], [72.80582563716395, 18.97928866279128], [72.80777554123267, 18.97830839682679], [72.80871096750083, 18.97825071316388], [72.8092562996029, 18.978825699443647], [72.80960833109908, 18.97827436413705], [72.81160317080172, 18.97805366563351], [72.8231903045653, 18.980372112729707], [72.81858195211835, 18.96902305093934], [72.82520331454037, 18.9679363239552], [72.82448897484647, 18.961759976320202], [72.82624706730032, 18.961687999430815]]]}}, {"type": "Feature", "id": "E", "properties": {"id": "E", "display_name": "E Ward", "area_km2": 7.27, "ndbi": -0.016, "lst_c": 39.31, "heat_score": 0.597, "priority_score": 0.748, "priority_rank": 4, "seasons": {"winter": {"score": 9.6, "rank": 23, "rec": "Critical. Prioritise new ventilation corridors and protect remaining open/green land; strong upwind obstruction control."}, "summer": {"score": 10.1, "rank": 23, "rec": "Critical. Prioritise new ventilation corridors and protect remaining open/green land; strong upwind obstruction control."}, "monsoon": {"score": 31.2, "rank": 17, "rec": "Poor. Create or widen green/open-space corridors aligned with the prevailing wind; restrictive on tall, wide built mass upwind."}}}, "geometry": {"type": "Polygon", "coordinates": [[[72.85002527036681, 18.980015604675923], [72.85004924185768, 18.978956286598766], [72.85566339565828, 18.977791505406618], [72.85534430620558, 18.976674834080235], [72.84983757859966, 18.97782185104841], [72.8494533667975, 18.97648275513654], [72.85119603970762, 18.97611546699938], [72.85146604003167, 18.97656494456875], [72.85590483038607, 18.975378018857313], [72.85540686562906, 18.974551926870156], [72.85103652268477, 18.975494673732168], [72.85090169543395, 18.975002909563617], [72.84943600667772, 18.975278807506513], [72.84933179382013, 18.974809641148045], [72.85420257240145, 18.973789760327445], [72.85368014325614, 18.972029097481162], [72.8513312789863, 18.97231591622554], [72.84972718902101, 18.97304221331765], [72.85009420679417, 18.97225773733301], [72.84986802980193, 18.97148828224538], [72.85075725396622, 18.970023885510784], [72.8530006220191, 18.969719606420362], [72.8529790833899, 18.969291786417486], [72.85072271056843, 18.96943568197442], [72.85136014048845, 18.968759649400287], [72.8521530863924, 18.968715347961556], [72.85229654785896, 18.967807685272494], [72.85141102299131, 18.96783453016388], [72.8511860966267, 18.967018740986337], [72.85038234384078, 18.967161756960053], [72.85041491566135, 18.96634064700479], [72.84982710484799, 18.966336651718006], [72.84937556794543, 18.9633954117145], [72.84767160168454, 18.963750849803105], [72.84760525654566, 18.963448849649367], [72.84662396806343, 18.96365536684156], [72.84530055258368, 18.963277613715483], [72.83944136179316, 18.964469819666505], [72.83881613726003, 18.965107811805254], [72.8373208771013, 18.96257094926838], [72.83211481205485, 18.96187858330593], [72.82448897484647, 18.961759976320202], [72.82520331454037, 18.9679363239552], [72.81858195211835, 18.96902305093934], [72.8231903045653, 18.980372112729707], [72.8270551023064, 18.98142207581877], [72.83312155519745, 18.98811919449586], [72.83529347782161, 18.988498435210147], [72.84138422122174, 18.988127788997083], [72.84260679548812, 18.983179812087037], [72.84536554230414, 18.982440782043817], [72.84677216249192, 18.981834179177806], [72.84657841395143, 18.981428776620913], [72.85002527036681, 18.980015604675923]]]}}, {"type": "Feature", "id": "F/S", "properties": {"id": "F/S", "display_name": "F/South Ward", "area_km2": 9.79, "ndbi": -0.027, "lst_c": 39.64, "heat_score": 0.659, "priority_score": 0.715, "priority_rank": 6, "seasons": {"winter": {"score": 21.5, "rank": 17, "rec": "Poor. Create or widen green/open-space corridors aligned with the prevailing wind; restrictive on tall, wide built mass upwind."}, "summer": {"score": 23.0, "rank": 17, "rec": "Poor. Create or widen green/open-space corridors aligned with the prevailing wind; restrictive on tall, wide built mass upwind."}, "monsoon": {"score": 39.9, "rank": 7, "rec": "Good ventilation. Maintain open space; watch for upwind blocking from high-rise growth."}}}, "geometry": {"type": "Polygon", "coordinates": [[[72.86979466400452, 19.007664100665373], [72.8615355554795, 19.00308267077626], [72.86235556137038, 19.00302484548483], [72.86140536290915, 19.00304040613157], [72.86132443396873, 19.00246936625137], [72.86239913207723, 19.002292252833783], [72.86233932315626, 19.00193928541499], [72.86102800229789, 19.00216586840784], [72.8599389374896, 18.998401333696133], [72.8609570170429, 18.995942456903794], [72.86204471395952, 18.995524311683145], [72.8610234204089, 18.995777608273677], [72.86161793232819, 18.994301693893124], [72.85958480805517, 18.993546871682057], [72.85994634949384, 18.99275706408427], [72.85689675940628, 18.99176874718517], [72.86118671380751, 18.981626314382364], [72.85768291798786, 18.978370862069426], [72.84975892159311, 18.980099931315248], [72.84657841395143, 18.981428776620913], [72.84665224807266, 18.981886782923894], [72.84260679548812, 18.983179812087037], [72.84137609081213, 18.98813152125693], [72.83529347782161, 18.988498435210147], [72.8331335200023, 18.98812183664306], [72.83310457044291, 18.998340398376698], [72.83419625177295, 19.002905135023486], [72.83595221118458, 19.006758062008277], [72.84284051392098, 19.016966054075816], [72.84748262402675, 19.013176793021536], [72.85630454869698, 19.010530569226354], [72.86319166583868, 19.015293136600018], [72.86309930867174, 19.01492497014039], [72.86379101930503, 19.015155775095916], [72.86530968161546, 19.01292770800444], [72.86619278793717, 19.012588935820908], [72.86874385892861, 19.00998469399191], [72.86902104490272, 19.008528516256256], [72.86941922464459, 19.008674235378468], [72.86979466400452, 19.007664100665373]]]}}, {"type": "Feature", "id": "G/S", "properties": {"id": "G/S", "display_name": "G/South Ward", "area_km2": 9.29, "ndbi": -0.028, "lst_c": 37.57, "heat_score": 0.269, "priority_score": 0.532, "priority_rank": 13, "seasons": {"winter": {"score": 22.0, "rank": 15, "rec": "Poor. Create or widen green/open-space corridors aligned with the prevailing wind; restrictive on tall, wide built mass upwind."}, "summer": {"score": 20.4, "rank": 19, "rec": "Poor. Create or widen green/open-space corridors aligned with the prevailing wind; restrictive on tall, wide built mass upwind."}, "monsoon": {"score": 36.0, "rank": 11, "rec": "Moderate. Encourage street-level permeability; avoid closing key links upwind."}}}, "geometry": {"type": "Polygon", "coordinates": [[[72.82689421050671, 19.019415136957434], [72.82866192563446, 19.016372294752703], [72.8292822603748, 19.016323034778388], [72.83316335279247, 19.009333624739117], [72.83635876388415, 19.00739508326776], [72.83470084669129, 19.004234535823407], [72.83334137008971, 18.999903800590648], [72.8331335200023, 18.98812183664306], [72.82635537947438, 18.981005400767703], [72.81171489495978, 18.978061073456537], [72.80960833109908, 18.97827436413705], [72.8092562996029, 18.978825699443647], [72.80852796690054, 18.978198231905623], [72.80738660481549, 18.97846616267664], [72.80582563716395, 18.97928866279128], [72.80941318928113, 18.98546295427116], [72.81185288607622, 18.993181376636137], [72.81186931504924, 18.996048575598824], [72.81126801687557, 18.99817536938358], [72.81139142008963, 19.001558338108907], [72.81670992290474, 19.013057489086226], [72.81582016681273, 19.016262433936273], [72.8153323582133, 19.024015223448565], [72.81403359042453, 19.02667756932496], [72.81464088097077, 19.026878646224247], [72.8173718733254, 19.023985366592058], [72.81888531474148, 19.02287624302089], [72.81924876394072, 19.023068406591484], [72.8185785640848, 19.022101599406344], [72.8189538283453, 19.019500631301383], [72.82090435080515, 19.01781763163641], [72.82389412663882, 19.017828433541812], [72.82689421050671, 19.019415136957434]]]}}, {"type": "Feature", "id": "F/N", "properties": {"id": "F/N", "display_name": "F/North Ward", "area_km2": 12.28, "ndbi": -0.03, "lst_c": 39.0, "heat_score": 0.539, "priority_score": 0.619, "priority_rank": 10, "seasons": {"winter": {"score": 27.3, "rank": 13, "rec": "Moderate. Encourage street-level permeability; avoid closing key links upwind."}, "summer": {"score": 30.1, "rank": 14, "rec": "Moderate. Encourage street-level permeability; avoid closing key links upwind."}, "monsoon": {"score": 42.0, "rank": 5, "rec": "Well ventilated. Protect existing open space and wind passages; no new obstruction in or upwind of this ward."}}}, "geometry": {"type": "Polygon", "coordinates": [[[72.87823179745781, 19.04782367591032], [72.87932037324961, 19.04775815550501], [72.87998717563643, 19.046914979342837], [72.87978677337344, 19.045634948275566], [72.88138156587495, 19.03751503101929], [72.8808385379694, 19.034741031553136], [72.87813041013969, 19.028664358378794], [72.87729757958205, 19.023869209913613], [72.87807717793406, 19.021767214552145], [72.87986345136095, 19.01939524926716], [72.88386428456006, 19.01579661079286], [72.88538097830676, 19.00794321017447], [72.8808830600616, 19.011531690118264], [72.87936564561349, 19.01166054924934], [72.87763415230101, 19.011348149992717], [72.87250730428141, 19.008552017479058], [72.86979466400452, 19.007664100665373], [72.86941922464459, 19.008674235378468], [72.86902104490272, 19.008528516256256], [72.86874385892861, 19.00998469399191], [72.86619278793717, 19.012588935820908], [72.86530968161546, 19.01292770800444], [72.86379101930503, 19.015155775095916], [72.86309930867174, 19.01492497014039], [72.86319166583868, 19.015293136600018], [72.85630454869698, 19.010530569226354], [72.84748262402675, 19.013176793021536], [72.84284051392098, 19.016966054075816], [72.86752565758519, 19.052584965850084], [72.86888966872263, 19.051412551734174], [72.87103335331473, 19.051127335933586], [72.87199249847235, 19.049946896615626], [72.87370265535037, 19.04989719403494], [72.87595465871983, 19.048854346980622], [72.87667963741228, 19.04902195323889], [72.87823179745781, 19.04782367591032]]]}}, {"type": "Feature", "id": "G/N", "properties": {"id": "G/N", "display_name": "G/North Ward", "area_km2": 8.76, "ndbi": -0.033, "lst_c": 38.3, "heat_score": 0.407, "priority_score": 0.55, "priority_rank": 11, "seasons": {"winter": {"score": 30.2, "rank": 10, "rec": "Good ventilation. Maintain open space; watch for upwind blocking from high-rise growth."}, "summer": {"score": 30.6, "rank": 13, "rec": "Moderate. Encourage street-level permeability; avoid closing key links upwind."}, "monsoon": {"score": 40.3, "rank": 6, "rec": "Good ventilation. Maintain open space; watch for upwind blocking from high-rise growth."}}}, "geometry": {"type": "Polygon", "coordinates": [[[72.86737674234014, 19.052373930607175], [72.83635876388415, 19.00739508326776], [72.83316335279247, 19.009333624739117], [72.8292822603748, 19.016323034778388], [72.82866192563446, 19.016372294752703], [72.82689421050671, 19.019415136957434], [72.83073438309601, 19.022278314658617], [72.83343078529501, 19.025045666942482], [72.83493407425176, 19.027359327385003], [72.83728669016841, 19.032846310116096], [72.83802374153974, 19.037277080393544], [72.83727023545254, 19.044055315385805], [72.83623049837135, 19.046904006030488], [72.83654401178273, 19.04790566228918], [72.83845043782479, 19.0483201246335], [72.84216200169045, 19.05095091363211], [72.86005826313664, 19.052277413638933], [72.86737674234014, 19.052373930607175]]]}}, {"type": "Feature", "id": "N", "properties": {"id": "N", "display_name": "N Ward", "area_km2": 25.69, "ndbi": -0.017, "lst_c": 38.34, "heat_score": 0.414, "priority_score": 0.547, "priority_rank": 12, "seasons": {"winter": {"score": 23.5, "rank": 14, "rec": "Moderate. Encourage street-level permeability; avoid closing key links upwind."}, "summer": {"score": 31.9, "rank": 11, "rec": "Moderate. Encourage street-level permeability; avoid closing key links upwind."}, "monsoon": {"score": 34.8, "rank": 13, "rec": "Moderate. Encourage street-level permeability; avoid closing key links upwind."}}}, "geometry": {"type": "Polygon", "coordinates": [[[72.94292589068348, 19.114758472284716], [72.94613966371023, 19.10829553088916], [72.9477195482275, 19.10369656113028], [72.9479210626635, 19.09204955250618], [72.9490632032432, 19.088477632348805], [72.94914940941061, 19.084025640356508], [72.95114829140499, 19.078866849870757], [72.95275324560923, 19.076988456565083], [72.95448367207929, 19.07256972308431], [72.9543757193792, 19.069130038061896], [72.95638788616007, 19.06553158861471], [72.95633675594787, 19.063500193239978], [72.95371244661442, 19.063386499383167], [72.95192151540476, 19.062101311974374], [72.94925013040032, 19.058829633708605], [72.94363039820428, 19.056435592690743], [72.94271473240742, 19.056475396077307], [72.94229518246897, 19.0567322105725], [72.94134025764156, 19.06141718539474], [72.93880699765744, 19.064640504414715], [72.93576386371917, 19.070111529627592], [72.93059256212065, 19.07459317044095], [72.92914952934264, 19.07548707537969], [72.92710905434281, 19.075972510444277], [72.92443673847517, 19.075880440031927], [72.9215189518109, 19.074558031839302], [72.91975791825736, 19.06856548585364], [72.91917586171444, 19.067925975849487], [72.91302875636364, 19.065322556532067], [72.911738757298, 19.065100082135583], [72.90925052225533, 19.07040074320125], [72.90767934807964, 19.07035235797316], [72.90730207977232, 19.071959265664145], [72.90521513264109, 19.071581527890594], [72.90285704956078, 19.07364367806505], [72.90226957330556, 19.072771037176533], [72.90193436170911, 19.072976074708095], [72.89922823560758, 19.07185347987469], [72.89525485116333, 19.071576890426183], [72.89271297948025, 19.068168265209597], [72.89106167126711, 19.068427766944772], [72.89144943475145, 19.07241252815212], [72.89387480101428, 19.080984707242354], [72.89375104707763, 19.083350596286458], [72.89267139880033, 19.08508377763321], [72.89441853091117, 19.085716844509754], [72.89434282169148, 19.091030734011177], [72.89489280427627, 19.09121620325642], [72.89497407554613, 19.092284660953332], [72.89570360917047, 19.09213388403478], [72.89594382913512, 19.09157941672605], [72.8967408630275, 19.091625901253224], [72.89916865420525, 19.093349350238285], [72.89970146120022, 19.094551786381285], [72.89934035485678, 19.095765322612795], [72.89876318547611, 19.09601773663906], [72.89968724999879, 19.0989937207435], [72.90058509380465, 19.099448706393133], [72.90198585051738, 19.10139621182792], [72.9045984355914, 19.103276218675326], [72.90500772377564, 19.104595844057663], [72.9067945673228, 19.107168338114697], [72.90835494872388, 19.108408730970293], [72.90978074423722, 19.10863123134903], [72.91330247478082, 19.11065259302053], [72.91521243635907, 19.1151554403098], [72.91635477338134, 19.115500482497712], [72.91830352391345, 19.117047269400608], [72.91845931931124, 19.110811969955723], [72.91762073994913, 19.11057794740924], [72.91550361071236, 19.10740032125657], [72.91610136118935, 19.106313768696523], [72.91591202074508, 19.10502868450089], [72.91994670014599, 19.10242436166147], [72.9254978249136, 19.110752165409192], [72.9267664608025, 19.111067140175162], [72.9331721156448, 19.10880770255176], [72.93407004602419, 19.110775709884035], [72.93461734990234, 19.11086651286063], [72.93633873456878, 19.113082590120552], [72.94292589068348, 19.114758472284716]]]}}, {"type": "Feature", "id": "R/C", "properties": {"id": "R/C", "display_name": "R/C Ward", "area_km2": 48.03, "ndbi": -0.055, "lst_c": 36.14, "heat_score": 0.0, "priority_score": 0.17, "priority_rank": 23, "seasons": {"winter": {"score": 69.2, "rank": 2, "rec": "Well ventilated. Protect existing open space and wind passages; no new obstruction in or upwind of this ward."}, "summer": {"score": 65.9, "rank": 2, "rec": "Well ventilated. Protect existing open space and wind passages; no new obstruction in or upwind of this ward."}, "monsoon": {"score": 36.7, "rank": 10, "rec": "Good ventilation. Maintain open space; watch for upwind blocking from high-rise growth."}}}, "geometry": {"type": "Polygon", "coordinates": [[[72.83496392932513, 19.24952036475506], [72.84191524518026, 19.243387270762767], [72.84894875903508, 19.23838363261611], [72.85798763509159, 19.237101307127414], [72.85866026049199, 19.237276880543657], [72.85941614688339, 19.23937743004306], [72.86101337547187, 19.238891990901568], [72.86293872837169, 19.237405853227003], [72.86415990475867, 19.23724392560678], [72.86435267345006, 19.238495977765982], [72.8702780446342, 19.23796251986188], [72.87766306618451, 19.238976051150868], [72.89358256592938, 19.24944467794833], [72.89869945218506, 19.24794296320038], [72.90102820940986, 19.2414519224375], [72.90879199832592, 19.232801963140894], [72.90948191426982, 19.2292407311732], [72.91009231919364, 19.22870310980988], [72.91097481631137, 19.22604088869039], [72.90991066841919, 19.218491244656178], [72.90824486739373, 19.216870446125924], [72.90745130081488, 19.21046611611312], [72.91016874256913, 19.207595403102808], [72.9089852551925, 19.20246850853722], [72.90098509967031, 19.201061047758277], [72.89954018018717, 19.204872766176553], [72.89532266373679, 19.207629256284896], [72.89534124779324, 19.2084122304845], [72.89406892866495, 19.208292625750417], [72.89200807928411, 19.20932611608689], [72.89190546319449, 19.210514553244426], [72.89122999860636, 19.210719999061155], [72.89023376423047, 19.21011711059561], [72.88694606004934, 19.211618309012636], [72.8863267241976, 19.21588269234987], [72.88205678747131, 19.217322760435916], [72.87819649857849, 19.21411108997626], [72.87758128601139, 19.214445897263506], [72.86920152157528, 19.21455371401575], [72.86347971147138, 19.21307026621805], [72.85743892272195, 19.212892386883116], [72.85359705591019, 19.213906367714355], [72.85148722147821, 19.213538940276607], [72.85115569289322, 19.21385505365998], [72.84824227449522, 19.212442295692387], [72.8459802278917, 19.21215429320636], [72.84189843316453, 19.21311743501562], [72.83825720373301, 19.215100801569886], [72.83577610658436, 19.21538226681625], [72.82097570727333, 19.215607943809395], [72.80360612465398, 19.214143764868712], [72.8045508503108, 19.21701676362341], [72.80603047739257, 19.217201912024777], [72.80717179762442, 19.219336279260368], [72.80659307064494, 19.221081701639523], [72.80407159763227, 19.222715025779962], [72.79839091969923, 19.224462744991484], [72.7962866992208, 19.22437117671732], [72.79523466840004, 19.224880055424414], [72.79482418034522, 19.22561002669129], [72.78288419061009, 19.224647338862592], [72.78100780427148, 19.222813685532753], [72.78143399888152, 19.220198311955237], [72.78010851040261, 19.219669897230812], [72.78103466322759, 19.218530266993135], [72.78029184517843, 19.217927995254936], [72.77906879999779, 19.21915340266456], [72.77906882240008, 19.220446893339926], [72.77830061076905, 19.22043217903027], [72.77769257868022, 19.22168197241585], [72.7767758819097, 19.22215045141911], [72.77639018711402, 19.223560802183993], [72.77658059175717, 19.225948237604346], [72.77781712652369, 19.226525512515998], [72.78064101654226, 19.231011440021373], [72.77908225308794, 19.23697891965592], [72.78115553984478, 19.240465725141213], [72.78100888504109, 19.243047315581343], [72.78294394178285, 19.249199024178267], [72.78311561587039, 19.253268151536158], [72.78166799292377, 19.259664810741537], [72.782989753441, 19.260077307962476], [72.78424712902012, 19.262095199427755], [72.78452216434201, 19.263135436556826], [72.78415754825006, 19.26477786272272], [72.78831116035661, 19.26320598894023], [72.78993229550206, 19.261442852192452], [72.79972220513437, 19.262268884648318], [72.8008909560409, 19.26108285722324], [72.80035501709169, 19.260401684912775], [72.80080648990271, 19.25882320162626], [72.80166286288096, 19.259060882254715], [72.80353699686104, 19.25824589980444], [72.80784359105866, 19.254991884825735], [72.81396893868582, 19.249067394415864], [72.81737330338404, 19.246917199938505], [72.82720354002076, 19.244973007401526], [72.82917654117144, 19.247188616850142], [72.83496392932513, 19.24952036475506]]]}}, {"type": "Feature", "id": "S", "properties": {"id": "S", "display_name": "S Ward", "area_km2": 29.75, "ndbi": -0.019, "lst_c": 38.3, "heat_score": 0.407, "priority_score": 0.513, "priority_rank": 14, "seasons": {"winter": {"score": 30.0, "rank": 11, "rec": "Moderate. Encourage street-level permeability; avoid closing key links upwind."}, "summer": {"score": 38.1, "rank": 7, "rec": "Good ventilation. Maintain open space; watch for upwind blocking from high-rise growth."}, "monsoon": {"score": 32.2, "rank": 16, "rec": "Poor. Create or widen green/open-space corridors aligned with the prevailing wind; restrictive on tall, wide built mass upwind."}}}, "geometry": {"type": "Polygon", "coordinates": [[[72.96131112674937, 19.13452766505535], [72.95903583443601, 19.132309063834917], [72.9612084769946, 19.128601484753798], [72.96073959270785, 19.125970056501217], [72.95457965396783, 19.116914041653924], [72.9537376031221, 19.113950656016765], [72.95182355234908, 19.11083155606778], [72.94906281494764, 19.111348434090566], [72.94536538602024, 19.114591489642315], [72.94407419777701, 19.11481667698225], [72.93633873456878, 19.113082590120552], [72.93461734990234, 19.11086651286063], [72.93407004602419, 19.110775709884035], [72.9331721156448, 19.10880770255176], [72.9267664608025, 19.111067140175162], [72.9254978249136, 19.110752165409192], [72.91994670014599, 19.10242436166147], [72.91591202074508, 19.10502868450089], [72.91610136118935, 19.106313768696523], [72.91550361071236, 19.10740032125657], [72.91762073994913, 19.11057794740924], [72.91845931931124, 19.110811969955723], [72.91830352391345, 19.117047269400608], [72.91635477338134, 19.115500482497712], [72.91521243635907, 19.1151554403098], [72.91330247478082, 19.11065259302053], [72.90978074423722, 19.10863123134903], [72.90800999583514, 19.10813679935135], [72.90671379752827, 19.11095860865197], [72.90454830196636, 19.111985039715684], [72.90448683708387, 19.115271696308508], [72.90326588324281, 19.11750212875574], [72.89608736106143, 19.12096082109777], [72.89573103499758, 19.12454880264973], [72.89207590002248, 19.125392862204727], [72.8864084204052, 19.129178410411782], [72.88489398568538, 19.12868014520158], [72.88477156543061, 19.129537893582416], [72.88639500701555, 19.12942852119825], [72.88871441238277, 19.131205037595084], [72.88858517866407, 19.132210872861787], [72.890925199586, 19.136147014175855], [72.89196781542388, 19.136406462963727], [72.89377976161292, 19.137989315371474], [72.89448119184134, 19.139487181212967], [72.89332699676123, 19.14210690618891], [72.8944231482581, 19.1420903448987], [72.89448564477472, 19.142610500456883], [72.89540057784819, 19.14263365337335], [72.8989260465704, 19.14094679811577], [72.89978468515314, 19.139349831821946], [72.90062702682663, 19.139707234774715], [72.90117818032066, 19.140642885754218], [72.90195754195602, 19.14052751382598], [72.901982801329, 19.141264066096564], [72.90481415864836, 19.140969889311496], [72.90478093255491, 19.140345607820375], [72.90616201633796, 19.13967600014083], [72.90696028425835, 19.140260754927482], [72.90736227227349, 19.139325232796104], [72.91003017807942, 19.140026535810552], [72.91073157914988, 19.14059388407835], [72.9127222973519, 19.14044852315473], [72.91287560543556, 19.141168584041374], [72.91392081994212, 19.141794670261337], [72.91812938347668, 19.141404892527206], [72.91844632959582, 19.14086990269689], [72.9206668931377, 19.14406314695703], [72.92164264901722, 19.144613032347745], [72.92296509450527, 19.14629776253646], [72.92404629931825, 19.149531507028847], [72.9240547750553, 19.150852181468444], [72.92478445865864, 19.152038214707588], [72.92601849979805, 19.153109917330926], [72.92672342872376, 19.15306496757094], [72.92744129782035, 19.153919181184868], [72.9272045889111, 19.155455731828717], [72.92803409212986, 19.156238509723757], [72.92868656174693, 19.157865383927987], [72.92898114364613, 19.162834045966147], [72.92864976031966, 19.16532575920011], [72.9290182113881, 19.165269845393688], [72.92869708578431, 19.16651501878941], [72.93098143904011, 19.16722110924669], [72.93698291221486, 19.163941196423362], [72.93927899603331, 19.163621555915718], [72.94641725517606, 19.16063604372273], [72.94697640504454, 19.15973219861755], [72.94664981511117, 19.15772343009505], [72.94723280441524, 19.156987192377272], [72.95692737956207, 19.154680150977065], [72.95468132952264, 19.151298425153584], [72.95624129227775, 19.15023716927357], [72.95827815352776, 19.150164111528692], [72.96116882506416, 19.148876104465664], [72.961871648404, 19.147196360484692], [72.96134606993958, 19.146289553536775], [72.95838919898804, 19.144701314280223], [72.95716129292784, 19.143320502127274], [72.95666183368702, 19.14175716982502], [72.95678372068775, 19.139720923087246], [72.95938668604893, 19.13613473634723], [72.96131112674937, 19.13452766505535]]]}}, {"type": "Feature", "id": "T", "properties": {"id": "T", "display_name": "T Ward", "area_km2": 42.88, "ndbi": -0.018, "lst_c": 36.96, "heat_score": 0.154, "priority_score": 0.373, "priority_rank": 22, "seasons": {"winter": {"score": 33.3, "rank": 8, "rec": "Good ventilation. Maintain open space; watch for upwind blocking from high-rise growth."}, "summer": {"score": 40.8, "rank": 6, "rec": "Good ventilation. Maintain open space; watch for upwind blocking from high-rise growth."}, "monsoon": {"score": 27.1, "rank": 21, "rec": "Critical. Prioritise new ventilation corridors and protect remaining open/green land; strong upwind obstruction control."}}}, "geometry": {"type": "Polygon", "coordinates": [[[72.96131112674937, 19.13452766505535], [72.95938668604893, 19.13613473634723], [72.95678372068775, 19.139720923087246], [72.95666183368702, 19.14175716982502], [72.95716129292784, 19.143320502127274], [72.95838919898804, 19.144701314280223], [72.96134606993958, 19.146289553536775], [72.961871648404, 19.147196360484692], [72.96116882506416, 19.148876104465664], [72.95827815352776, 19.150164111528692], [72.95624129227775, 19.15023716927357], [72.95468132952264, 19.151298425153584], [72.95692737956207, 19.154680150977065], [72.94723280441524, 19.156987192377272], [72.94664981511117, 19.15772343009505], [72.94697640504454, 19.15973219861755], [72.94641725517606, 19.16063604372273], [72.93927899603331, 19.163621555915718], [72.93698291221486, 19.163941196423362], [72.93122817996337, 19.167205966900504], [72.92869708578431, 19.16651501878941], [72.9290182113881, 19.165269845393688], [72.92864976031966, 19.16532575920011], [72.92898114364613, 19.162834045966147], [72.92868656174693, 19.157865383927987], [72.92803409212986, 19.156238509723757], [72.9272045889111, 19.155455731828717], [72.92744129782035, 19.153919181184868], [72.92672342872376, 19.15306496757094], [72.92601849979805, 19.153109917330926], [72.92478445865864, 19.152038214707588], [72.9240547750553, 19.150852181468444], [72.92404629931825, 19.149531507028847], [72.92296509450527, 19.14629776253646], [72.92164264901722, 19.144613032347745], [72.9206668931377, 19.14406314695703], [72.91844632959582, 19.14086990269689], [72.91812938347668, 19.141404892527206], [72.91392081994212, 19.141794670261337], [72.91287560543556, 19.141168584041374], [72.9127222973519, 19.14044852315473], [72.91073157914988, 19.14059388407835], [72.91003017807942, 19.140026535810552], [72.90736227227349, 19.139325232796104], [72.90696028425835, 19.140260754927482], [72.90616201633796, 19.13967600014083], [72.90478093255491, 19.140345607820375], [72.90481415864836, 19.140969889311496], [72.901982801329, 19.141264066096564], [72.90195754195602, 19.14052751382598], [72.90117818032066, 19.140642885754218], [72.90062702682663, 19.139707234774715], [72.89978468515314, 19.139349831821946], [72.89903408631226, 19.140876885950952], [72.89540057784819, 19.14263365337335], [72.89448564477472, 19.142610500456883], [72.89413990697794, 19.14200443634934], [72.89533769558255, 19.145205443682197], [72.89498977651577, 19.14729508664223], [72.89298481377539, 19.150677152793545], [72.89350046804893, 19.153707986433872], [72.8894130077402, 19.156848107390733], [72.89045652726584, 19.157632489259303], [72.89046886071218, 19.15988956658424], [72.89155143403784, 19.160266851012107], [72.89247551963268, 19.163176761999278], [72.89232041440644, 19.163970524483183], [72.89704853111058, 19.173598724180266], [72.89932886046095, 19.17608851126129], [72.90026532634027, 19.17992745689824], [72.89999187391311, 19.18326322733052], [72.90032263958875, 19.191536706595297], [72.9014686250776, 19.19636999982831], [72.90235762248182, 19.1972512229951], [72.90243946872954, 19.20138805258228], [72.9089852551925, 19.20246850853722], [72.9101687570266, 19.20759546288379], [72.91346449585221, 19.20826403783743], [72.91486052566594, 19.210172686820577], [72.91721180540318, 19.216166393398897], [72.92008898749478, 19.21693349773297], [72.92229102297854, 19.216394450846778], [72.9261590123594, 19.213524354359066], [72.92756504376695, 19.21169353784926], [72.93098476637039, 19.211228233907374], [72.93296306033895, 19.207109229301533], [72.9355095029001, 19.205499311081805], [72.93532960562531, 19.19399744605617], [72.93702278146954, 19.191829023616055], [72.94193996384291, 19.187386105380842], [72.94287665828979, 19.18785319767328], [72.94343917241798, 19.18759681402205], [72.94502140808444, 19.18810719111883], [72.94672743625597, 19.18802037116389], [72.94960591016653, 19.187075302776133], [72.95007395777684, 19.185946796207865], [72.95127046466871, 19.18505946389594], [72.95330298385913, 19.184741193285983], [72.95498126013807, 19.18517761346914], [72.95585570994741, 19.184216729881452], [72.95578659111392, 19.183330799400355], [72.958347392187, 19.182152835608743], [72.95862202504466, 19.18080917749129], [72.95956044801638, 19.18020742374222], [72.95939399521482, 19.179420372022104], [72.95979786643206, 19.178932955076206], [72.96106223763398, 19.178870735842132], [72.96166852970111, 19.17944246478586], [72.9625495224933, 19.178425242630606], [72.9625576269233, 19.177615051670042], [72.96378391125164, 19.17667032027664], [72.96574477912868, 19.17714383522542], [72.96696913919861, 19.1779505919986], [72.96802556694979, 19.177913646266497], [72.96850812590311, 19.17601170561346], [72.97022132678373, 19.175555356897128], [72.9709160152798, 19.176089809667285], [72.97186129818733, 19.178702842220513], [72.9726761700234, 19.17853360254855], [72.9727025969798, 19.177306916068126], [72.973568383959, 19.17719646497225], [72.97973149704592, 19.16887508204343], [72.97682712509818, 19.159855397390555], [72.97565950056494, 19.152655446810968], [72.97303513750737, 19.14929783663736], [72.96807403467741, 19.140654031824386], [72.96567893810415, 19.1390776518181], [72.96131112674937, 19.13452766505535]]]}}, {"type": "Feature", "id": "K/W", "properties": {"id": "K/W", "display_name": "K/West Ward", "area_km2": 24.55, "ndbi": -0.034, "lst_c": 37.5, "heat_score": 0.256, "priority_score": 0.442, "priority_rank": 18, "seasons": {"winter": {"score": 40.5, "rank": 6, "rec": "Good ventilation. Maintain open space; watch for upwind blocking from high-rise growth."}, "summer": {"score": 37.3, "rank": 8, "rec": "Good ventilation. Maintain open space; watch for upwind blocking from high-rise growth."}, "monsoon": {"score": 28.0, "rank": 20, "rec": "Critical. Prioritise new ventilation corridors and protect remaining open/green land; strong upwind obstruction control."}}}, "geometry": {"type": "MultiPolygon", "coordinates": [[[[72.78284409760738, 19.132572974798524], [72.78138375043636, 19.132609768551962], [72.78042474758459, 19.133686437326418], [72.7804710801763, 19.13450318059335], [72.78152021925979, 19.13525041130711], [72.78313277154545, 19.134535300193484], [72.78357478506818, 19.133588414377044], [72.78284409760738, 19.132572974798524]]], [[[72.84997650289054, 19.14355746773086], [72.84281273830045, 19.09042293659993], [72.84155136179275, 19.090568325471438], [72.83827451384158, 19.08971976703049], [72.83812470125991, 19.08668018318212], [72.83252167606388, 19.086369670393783], [72.83219604042245, 19.084833430900776], [72.8304069601234, 19.08535501703488], [72.82979389918785, 19.083710297322135], [72.8283522412944, 19.082357533523066], [72.82780476522485, 19.081079929518936], [72.82588438103353, 19.079902554672447], [72.82399399101311, 19.081036574503145], [72.82309342554119, 19.082437032938174], [72.82339019764346, 19.08368803450965], [72.82413692207336, 19.084039559612712], [72.82615255197388, 19.088381118999866], [72.82654200567859, 19.090268295742426], [72.82626882990326, 19.096390128769478], [72.82415475710157, 19.102897047385678], [72.8219580993342, 19.113075936036452], [72.81800672201626, 19.12186296543573], [72.81305495789171, 19.129862682212174], [72.8101357784794, 19.13362296945671], [72.80519555120644, 19.138829529009392], [72.79485111322603, 19.132918434815814], [72.79516423201562, 19.131616674701927], [72.79298860406675, 19.13070216550608], [72.79181366413114, 19.131337405796312], [72.7896216975659, 19.13113131403198], [72.78814159582105, 19.129875915030986], [72.78720274023522, 19.13006332694282], [72.78803057554671, 19.13042652934195], [72.78765595230142, 19.13266407562214], [72.78830149703025, 19.134841339689416], [72.7885522485292, 19.139278487917657], [72.78819884649107, 19.14161767796053], [72.78767617878103, 19.14212085704907], [72.78821662770365, 19.143927527299883], [72.78864512503218, 19.14465981010265], [72.79144512105765, 19.144883565171373], [72.7935282285434, 19.143864461507313], [72.79555652488733, 19.1421344639684], [72.79663089923667, 19.142093900504207], [72.79814166002743, 19.142847448466828], [72.79820911877621, 19.13973311088608], [72.8012769551194, 19.138627436149974], [72.80602166083314, 19.149945550367672], [72.81090703479563, 19.155863822118466], [72.81374862150466, 19.153263979643253], [72.818225296819, 19.156534817842463], [72.82035464018132, 19.155702833597253], [72.82200607463928, 19.150512303237893], [72.82799372210117, 19.153956667822236], [72.83290492075938, 19.15129086643473], [72.8394542921398, 19.15087470733811], [72.84035548545741, 19.149855142985118], [72.84324721270234, 19.150248411660233], [72.84441165658595, 19.149507081162806], [72.84549100904222, 19.147632551212094], [72.84629357234635, 19.147067755737503], [72.84593130874408, 19.146582842159376], [72.84801181700237, 19.145776436009154], [72.8483574810844, 19.14384192267844], [72.84997650289054, 19.14355746773086]]]]}}, {"type": "Feature", "id": "R/N", "properties": {"id": "R/N", "display_name": "R/North Ward", "area_km2": 14.18, "ndbi": -0.089, "lst_c": 36.9, "heat_score": 0.143, "priority_score": 0.081, "priority_rank": 24, "seasons": {"winter": {"score": 100.0, "rank": 1, "rec": "Well ventilated. Protect existing open space and wind passages; no new obstruction in or upwind of this ward."}, "summer": {"score": 98.2, "rank": 1, "rec": "Well ventilated. Protect existing open space and wind passages; no new obstruction in or upwind of this ward."}, "monsoon": {"score": 65.6, "rank": 1, "rec": "Well ventilated. Protect existing open space and wind passages; no new obstruction in or upwind of this ward."}}}, "geometry": {"type": "Polygon", "coordinates": [[[72.89358256592938, 19.24944467794833], [72.87766306618451, 19.238976051150868], [72.8702780446342, 19.23796251986188], [72.86435267345006, 19.238495977765982], [72.86415990475867, 19.23724392560678], [72.86293872837169, 19.237405853227003], [72.8597933785483, 19.239406208756144], [72.8589375830676, 19.238763585794285], [72.85866026049199, 19.237276880543657], [72.85798763509159, 19.237101307127414], [72.85517157961232, 19.237773964884692], [72.84951243649915, 19.23814508395152], [72.84416923878075, 19.241594162469415], [72.83496392932513, 19.24952036475506], [72.83859942914093, 19.25203856970317], [72.8361716899061, 19.25506042419361], [72.83578023417205, 19.258626531750032], [72.83644237152446, 19.261903469294452], [72.838645639383, 19.265866919707744], [72.84046611705568, 19.267121920623204], [72.84248614865587, 19.267449950125467], [72.84556193319575, 19.26693461337862], [72.8470761884954, 19.267341921579657], [72.85087816752021, 19.269912217985432], [72.85396382787381, 19.270176667777736], [72.85565929380833, 19.269585035212195], [72.85678026797602, 19.269722407396163], [72.85690137329668, 19.268641423936376], [72.85918953566377, 19.268201235735916], [72.86117903332419, 19.26668352503775], [72.86249940124027, 19.267048021476647], [72.86263774684149, 19.26778589886981], [72.86464955472596, 19.266027530467635], [72.86618557144128, 19.266581272951083], [72.86593441179278, 19.26466009989886], [72.8688527688586, 19.261141057181646], [72.86909268207599, 19.262105693980114], [72.8699151885257, 19.26172756882438], [72.86981540849824, 19.26061107622797], [72.87010502316816, 19.261077333567247], [72.8718696955484, 19.26125176448992], [72.8738479967035, 19.260582532261477], [72.8761071768853, 19.26044035927222], [72.87765411113342, 19.25878618360614], [72.87865425135966, 19.25680678774626], [72.88179536785633, 19.25422781846141], [72.88484712863416, 19.253278693888095], [72.88867488500519, 19.249863148082717], [72.89358256592938, 19.24944467794833]]]}}, {"type": "Feature", "id": "M/E", "properties": {"id": "M/E", "display_name": "M/East Ward", "area_km2": 33.08, "ndbi": -0.021, "lst_c": 39.59, "heat_score": 0.65, "priority_score": 0.671, "priority_rank": 9, "seasons": {"winter": {"score": 21.7, "rank": 16, "rec": "Poor. Create or widen green/open-space corridors aligned with the prevailing wind; restrictive on tall, wide built mass upwind."}, "summer": {"score": 30.9, "rank": 12, "rec": "Moderate. Encourage street-level permeability; avoid closing key links upwind."}, "monsoon": {"score": 43.3, "rank": 3, "rec": "Well ventilated. Protect existing open space and wind passages; no new obstruction in or upwind of this ward."}}}, "geometry": {"type": "Polygon", "coordinates": [[[72.95633675594787, 19.063500193239978], [72.95764765445519, 19.063037683141633], [72.95947113905449, 19.061547884524963], [72.96023846347067, 19.06019855280484], [72.9605985970234, 19.05688044679284], [72.95950447773102, 19.049108633749107], [72.95979906038004, 19.04807967868688], [72.95833919264419, 19.044194679170925], [72.953521905352, 19.038341151974677], [72.95485299038528, 19.03751462872711], [72.95286563667834, 19.035715139754934], [72.95152300161824, 19.030877816551396], [72.94807837049898, 19.028706070099332], [72.93851025542189, 19.024793976853847], [72.93716639994481, 19.02649810092308], [72.93351606068421, 19.02530672739863], [72.93251040322626, 19.022836992753817], [72.93099807558205, 19.021696790709093], [72.92694568994588, 19.016490139117096], [72.92705554357778, 19.015466450687853], [72.92061402791184, 19.00714433489997], [72.91801327283595, 19.00289638692071], [72.91295326367359, 18.99739778724611], [72.91019979867532, 18.996077907520167], [72.90737352337052, 18.99576910269357], [72.90444525353955, 18.99398893065846], [72.90432224907552, 19.002968061998104], [72.90491058227816, 19.003131368273674], [72.90538626925947, 19.00677019610119], [72.90104546041374, 19.007920174613915], [72.89846765591338, 19.009334167207072], [72.89767943563146, 19.027491735847104], [72.8951254301548, 19.03631801405329], [72.89471286235165, 19.039369864424444], [72.89388649690251, 19.04094174178026], [72.8951927253073, 19.041419555690624], [72.8952844779238, 19.042646892501097], [72.89604753646238, 19.04239835006634], [72.89656395026873, 19.04379220739616], [72.89874810411007, 19.044659397857348], [72.89882823457202, 19.046086655357197], [72.90934002065369, 19.04571348530463], [72.91108406394801, 19.05517195442704], [72.91237327276913, 19.057226712675952], [72.90772582910847, 19.059730886557446], [72.90800001105613, 19.060015603176506], [72.90756844605252, 19.060300860764446], [72.91156383312787, 19.065018797409067], [72.91640852893693, 19.066543726194816], [72.91917586171444, 19.067925975849487], [72.91975791825736, 19.06856548585364], [72.9215189518109, 19.074558031839302], [72.92312439246662, 19.075493675749346], [72.92567409598826, 19.076005963016534], [72.92914952934264, 19.07548707537969], [72.93491246236188, 19.071164810039974], [72.93647005701013, 19.069127844095604], [72.93880699765744, 19.064640504414715], [72.94134025764156, 19.06141718539474], [72.94229518246897, 19.0567322105725], [72.94271473240742, 19.056475396077307], [72.94363039820428, 19.056435592690743], [72.94925013040032, 19.058829633708605], [72.95192151540476, 19.062101311974374], [72.95371244661442, 19.063386499383167], [72.95633675594787, 19.063500193239978]]]}}, {"type": "Feature", "id": "M/W", "properties": {"id": "M/W", "display_name": "M/West Ward", "area_km2": 17.4, "ndbi": -0.02, "lst_c": 39.33, "heat_score": 0.601, "priority_score": 0.671, "priority_rank": 8, "seasons": {"winter": {"score": 20.2, "rank": 18, "rec": "Poor. Create or widen green/open-space corridors aligned with the prevailing wind; restrictive on tall, wide built mass upwind."}, "summer": {"score": 25.9, "rank": 16, "rec": "Poor. Create or widen green/open-space corridors aligned with the prevailing wind; restrictive on tall, wide built mass upwind."}, "monsoon": {"score": 37.5, "rank": 9, "rec": "Good ventilation. Maintain open space; watch for upwind blocking from high-rise growth."}}}, "geometry": {"type": "Polygon", "coordinates": [[[72.911738757298, 19.065100082135583], [72.90756844605252, 19.060300860764446], [72.90800001105613, 19.060015603176506], [72.90772582910847, 19.059730886557446], [72.91237327276913, 19.057226712675952], [72.91108406394801, 19.05517195442704], [72.90934002065369, 19.04571348530463], [72.89882823457202, 19.046086655357197], [72.89874810411007, 19.044659397857348], [72.89656395026873, 19.04379220739616], [72.89604753646238, 19.04239835006634], [72.8952844779238, 19.042646892501097], [72.8951927253073, 19.041419555690624], [72.89388649690251, 19.04094174178026], [72.89471286235165, 19.039369864424444], [72.8951254301548, 19.03631801405329], [72.89767943563146, 19.027491735847104], [72.89846765591338, 19.009334167207072], [72.90104546041374, 19.007920174613915], [72.90538626925947, 19.00677019610119], [72.90491058227816, 19.003131368273674], [72.90432224907552, 19.002968061998104], [72.90444525353955, 18.99398893065846], [72.90034534398113, 18.995212127864296], [72.8958192274461, 18.99520842713239], [72.89128293540844, 18.9943293530092], [72.8875956971073, 18.99164790248701], [72.88705313812605, 18.99244279757836], [72.88645965620033, 19.001107275380303], [72.88404801886058, 19.01536085497644], [72.87954740833409, 19.01979297423322], [72.87807717793406, 19.021767214552145], [72.87729757958205, 19.023869209913613], [72.87813041013969, 19.028664358378794], [72.8808385379694, 19.034741031553136], [72.88138156587495, 19.03751503101929], [72.87978677337344, 19.045634948275566], [72.87998717563643, 19.046914979342837], [72.87932037324961, 19.04775815550501], [72.87823176819609, 19.04782364049074], [72.89518129347688, 19.07153917827631], [72.89790360990558, 19.072027458214688], [72.89922823560758, 19.07185347987469], [72.90193436170911, 19.072976074708095], [72.90226957330556, 19.072771037176533], [72.90285704956078, 19.07364367806505], [72.90521513264109, 19.071581527890594], [72.90730207977232, 19.071959265664145], [72.90767934807964, 19.07035235797316], [72.90925052225533, 19.07040074320125], [72.90950763323077, 19.06951277456452], [72.90986690184447, 19.069563824630478], [72.9101127505603, 19.068081636892604], [72.911738757298, 19.065100082135583]]]}}, {"type": "Feature", "id": "H/E", "properties": {"id": "H/E", "display_name": "H/East Ward", "area_km2": 12.42, "ndbi": -0.026, "lst_c": 39.63, "heat_score": 0.657, "priority_score": 0.682, "priority_rank": 7, "seasons": {"winter": {"score": 28.3, "rank": 12, "rec": "Moderate. Encourage street-level permeability; avoid closing key links upwind."}, "summer": {"score": 29.3, "rank": 15, "rec": "Poor. Create or widen green/open-space corridors aligned with the prevailing wind; restrictive on tall, wide built mass upwind."}, "monsoon": {"score": 32.2, "rank": 15, "rec": "Poor. Create or widen green/open-space corridors aligned with the prevailing wind; restrictive on tall, wide built mass upwind."}}}, "geometry": {"type": "Polygon", "coordinates": [[[72.85951634063477, 19.0835427343317], [72.8604022946568, 19.083754410030004], [72.86128257089636, 19.082013494179385], [72.86216062097877, 19.08168113568047], [72.86419494239546, 19.08242679421788], [72.86492204245634, 19.083645744001686], [72.8664284451245, 19.082447362152674], [72.86850574579891, 19.08245547768341], [72.87593497462402, 19.078926156547727], [72.87492668417586, 19.077497849091305], [72.87113007416112, 19.075677695171798], [72.87212527922105, 19.072449643579063], [72.87255429624318, 19.071692136818424], [72.87336473287941, 19.071338667842284], [72.8725097878718, 19.066860877955683], [72.87292652019659, 19.0637777216713], [72.87139038831786, 19.061546602337206], [72.87128133541891, 19.060513301340418], [72.86951768799241, 19.057401291238342], [72.86355847489955, 19.052333142479792], [72.84321839119605, 19.05102687324719], [72.84139560538372, 19.05635631487153], [72.84089031153201, 19.071490849509726], [72.84137017520375, 19.080446418992423], [72.84281273830045, 19.09042293659993], [72.84376446831362, 19.09067891245409], [72.84587697320194, 19.089753962011862], [72.84620481722645, 19.08922418927086], [72.84789853398797, 19.089424563466235], [72.84938805291908, 19.0888171228942], [72.85220305031604, 19.0912043466129], [72.85611179249611, 19.092656514619915], [72.8578740317643, 19.094425213770855], [72.86033929978953, 19.093048158877906], [72.85769813850118, 19.088742991445876], [72.8591841870382, 19.08843471816423], [72.85975410985567, 19.08737326047634], [72.85930846966427, 19.083931639097056], [72.85846313090887, 19.08203959159491], [72.85951634063477, 19.0835427343317]]]}}, {"type": "Feature", "id": "K/E", "properties": {"id": "K/E", "display_name": "K/East Ward", "area_km2": 23.96, "ndbi": -0.025, "lst_c": 40.45, "heat_score": 0.812, "priority_score": 0.739, "priority_rank": 5, "seasons": {"winter": {"score": 32.2, "rank": 9, "rec": "Good ventilation. Maintain open space; watch for upwind blocking from high-rise growth."}, "summer": {"score": 33.5, "rank": 9, "rec": "Good ventilation. Maintain open space; watch for upwind blocking from high-rise growth."}, "monsoon": {"score": 28.3, "rank": 19, "rec": "Poor. Create or widen green/open-space corridors aligned with the prevailing wind; restrictive on tall, wide built mass upwind."}}}, "geometry": {"type": "Polygon", "coordinates": [[[72.89067342326803, 19.135622317553818], [72.88858517866407, 19.132210872861787], [72.88871441238277, 19.131205037595084], [72.88639500701555, 19.12942852119825], [72.88477156543061, 19.129537893582416], [72.88474376080477, 19.128336944855235], [72.88648004400015, 19.127123732453605], [72.88752958315156, 19.122793159332716], [72.88858820451745, 19.121916548219716], [72.88852442891594, 19.12149115066164], [72.88663299798279, 19.120668222025373], [72.88584846524033, 19.11862968131417], [72.88615949558377, 19.116068710443987], [72.88732048487951, 19.11405720543807], [72.88526909698527, 19.111631022383982], [72.88535763979746, 19.111015732032193], [72.88695614556904, 19.109841162564845], [72.88705656409348, 19.10924741262937], [72.88634332263634, 19.10723793429533], [72.88410851855465, 19.10554127924727], [72.88363868951639, 19.103821046628447], [72.88036102124342, 19.1024131439123], [72.87913205784658, 19.099750187717387], [72.87909397327564, 19.09855461544818], [72.88067780362181, 19.098039205435896], [72.88095059935011, 19.09665121337118], [72.87973888881861, 19.09478648852365], [72.87869635549785, 19.09425735771134], [72.87829398939218, 19.09329371237339], [72.87871554062474, 19.09087921339518], [72.87923990626769, 19.09034468098128], [72.87875585628325, 19.088445010688023], [72.87916214207519, 19.085979225313782], [72.87625884713127, 19.08616816800123], [72.876004357786, 19.08474544929292], [72.87012339549847, 19.08172556884159], [72.86831515633637, 19.08251167485358], [72.8664284451245, 19.082447362152674], [72.86492204245634, 19.083645744001686], [72.86419494239546, 19.08242679421788], [72.86294075091331, 19.08181229980182], [72.86168865009623, 19.08176128190265], [72.86068643656989, 19.082794051473826], [72.8604022946568, 19.083754410030004], [72.85989143330714, 19.083879072855936], [72.85846313090887, 19.08203959159491], [72.85930846966427, 19.083931639097056], [72.85975410985567, 19.08737326047634], [72.8591841870382, 19.08843471816423], [72.85769813850118, 19.088742991445876], [72.86033929978953, 19.093048158877906], [72.85934494375354, 19.093745878726054], [72.8578740317643, 19.094425213770855], [72.85611179249611, 19.092656514619915], [72.85220305031604, 19.0912043466129], [72.84938805291908, 19.0888171228942], [72.84789853398797, 19.089424563466235], [72.84620481722645, 19.08922418927086], [72.84587697320194, 19.089753962011862], [72.84376446831362, 19.09067891245409], [72.84281273830045, 19.09042293659993], [72.84997650289054, 19.14355746773086], [72.85251459236251, 19.143265669578522], [72.85273713465595, 19.142480217304005], [72.85431254705122, 19.142501801325892], [72.85704877897967, 19.141605000734252], [72.86250823275849, 19.141955996064763], [72.86387739584848, 19.141298836815185], [72.87538300345986, 19.138535367164735], [72.8744534600897, 19.13838898018352], [72.87472032493436, 19.13758295464223], [72.87595788248133, 19.13781026304199], [72.87655958670263, 19.138727137413262], [72.87780555324271, 19.138789194300603], [72.87833346311561, 19.139570417448546], [72.8788300889914, 19.13796464784994], [72.88524603287792, 19.136854373347898], [72.88558384286254, 19.13757711594354], [72.89067342326803, 19.135622317553818]]]}}, {"type": "Feature", "id": "P/S", "properties": {"id": "P/S", "display_name": "P/South Ward", "area_km2": 25.19, "ndbi": -0.046, "lst_c": 38.11, "heat_score": 0.371, "priority_score": 0.416, "priority_rank": 20, "seasons": {"winter": {"score": 54.3, "rank": 3, "rec": "Well ventilated. Protect existing open space and wind passages; no new obstruction in or upwind of this ward."}, "summer": {"score": 53.9, "rank": 3, "rec": "Well ventilated. Protect existing open space and wind passages; no new obstruction in or upwind of this ward."}, "monsoon": {"score": 39.6, "rank": 8, "rec": "Good ventilation. Maintain open space; watch for upwind blocking from high-rise growth."}}}, "geometry": {"type": "Polygon", "coordinates": [[[72.89234307961391, 19.163881897533862], [72.89155143403784, 19.160266851012107], [72.89046886071218, 19.15988956658424], [72.89045652726584, 19.157632489259303], [72.8894130077402, 19.156848107390733], [72.89350046804893, 19.153707986433872], [72.89298481377539, 19.150677152793545], [72.89498977651577, 19.14729508664223], [72.89533769558255, 19.145205443682197], [72.89413990697794, 19.14200443634934], [72.89332699676123, 19.14210690618891], [72.89448119184134, 19.139487181212967], [72.89377976161292, 19.137989315371474], [72.89196781542388, 19.136406462963727], [72.890925199586, 19.136147014175855], [72.89069653331934, 19.135613184709964], [72.88558384286254, 19.13757711594354], [72.88524603287792, 19.136854373347898], [72.8788300889914, 19.13796464784994], [72.87833346311561, 19.139570417448546], [72.87780555324271, 19.138789194300603], [72.87655958670263, 19.138727137413262], [72.87595788248133, 19.13781026304199], [72.87472032493436, 19.13758295464223], [72.8744534600897, 19.13838898018352], [72.87538300345986, 19.138535367164735], [72.86387739584848, 19.141298836815185], [72.86250823275849, 19.141955996064763], [72.85704877897967, 19.141605000734252], [72.85431254705122, 19.142501801325892], [72.85273713465595, 19.142480217304005], [72.85251459236251, 19.143265669578522], [72.8483574810844, 19.14384192267844], [72.84801181700237, 19.145776436009154], [72.84593130874408, 19.146582842159376], [72.84629357234635, 19.147067755737503], [72.84549100904222, 19.147632551212094], [72.84441165658595, 19.149507081162806], [72.84331717675454, 19.150229918031588], [72.84035548545741, 19.149855142985118], [72.8394542921398, 19.15087470733811], [72.83290492075938, 19.15129086643473], [72.82799372210117, 19.153956667822236], [72.82200607463928, 19.150512303237893], [72.82096548182423, 19.154383779896747], [72.81984733843366, 19.15600299327674], [72.818225296819, 19.156534817842463], [72.81374862150466, 19.153263979643253], [72.81104107545919, 19.155995335300794], [72.82503168581253, 19.169629783440577], [72.82575514379312, 19.17266152011384], [72.8287017273085, 19.175412076074796], [72.82963844164674, 19.178488525409602], [72.83494077659523, 19.17872914675439], [72.83633173511406, 19.179754942385546], [72.8376288439668, 19.179331924011368], [72.84480226232127, 19.178880993774715], [72.8462824883361, 19.178111651352534], [72.84855799227233, 19.177748274002354], [72.85049703721015, 19.176420852781256], [72.85141895870865, 19.176279864289903], [72.8567645135196, 19.17747258027346], [72.85720814738791, 19.17579922202234], [72.85786601629584, 19.175364053992798], [72.85937801443836, 19.17540044836702], [72.85947358166727, 19.174357028006646], [72.8666892011775, 19.17583690460906], [72.86900395780985, 19.175560949744533], [72.8740326555078, 19.175965404131773], [72.87460991362043, 19.170469728932222], [72.87621288785873, 19.167749529210074], [72.87742013132991, 19.16662082024646], [72.88204604572785, 19.16454229471208], [72.88869999767101, 19.16260238375374], [72.89037177159065, 19.162840823763055], [72.89234307961391, 19.163881897533862]]]}}, {"type": "Feature", "id": "P/N", "properties": {"id": "P/N", "display_name": "P/North Ward", "area_km2": 46.72, "ndbi": -0.033, "lst_c": 37.24, "heat_score": 0.207, "priority_score": 0.396, "priority_rank": 21, "seasons": {"winter": {"score": 45.8, "rank": 5, "rec": "Well ventilated. Protect existing open space and wind passages; no new obstruction in or upwind of this ward."}, "summer": {"score": 41.5, "rank": 5, "rec": "Well ventilated. Protect existing open space and wind passages; no new obstruction in or upwind of this ward."}, "monsoon": {"score": 20.7, "rank": 24, "rec": "Critical. Prioritise new ventilation corridors and protect remaining open/green land; strong upwind obstruction control."}}}, "geometry": {"type": "Polygon", "coordinates": [[[72.8045508503108, 19.21701676362341], [72.80338593559013, 19.213501396860586], [72.80423845214631, 19.21304737495551], [72.80791967928829, 19.211942671992695], [72.80890323374099, 19.21076898995548], [72.80859632412425, 19.20969347085687], [72.80940663406415, 19.20861894756539], [72.81043760199964, 19.208597011285892], [72.81039103099867, 19.20805869177119], [72.81106648882599, 19.208257659497786], [72.81092074060739, 19.206501794524588], [72.81432435094837, 19.204797578909517], [72.81663174559543, 19.20437589741539], [72.82283365032752, 19.204985330236255], [72.82742596424893, 19.20159393807858], [72.8285745372304, 19.19962034391557], [72.82938547238047, 19.19925141060622], [72.82910769463997, 19.197704559772895], [72.83065057882216, 19.19626390789221], [72.83185776411851, 19.198220771617006], [72.83189203587894, 19.199193199240565], [72.83288047157632, 19.199175298919386], [72.83593168717792, 19.200996607394785], [72.83975731513355, 19.200427035383385], [72.84259310874248, 19.199393963432755], [72.84450554346186, 19.196379304242758], [72.84509746654955, 19.196440490947634], [72.84523472331301, 19.19537882782304], [72.84672707022047, 19.195463205034077], [72.84752718177009, 19.194918817529953], [72.85055024848074, 19.194823359705396], [72.85116019957354, 19.19893046821125], [72.85367967357762, 19.19889871899089], [72.85410487045993, 19.1958946779481], [72.85359823489985, 19.19573763236297], [72.85365005786838, 19.193907759703855], [72.85510026176722, 19.193696698223903], [72.85629788714206, 19.194344090220905], [72.86034487433035, 19.194678805557924], [72.85981769390182, 19.19341000933022], [72.8612808045411, 19.191692022558552], [72.86404404594352, 19.190983985476], [72.86476110523351, 19.193430040492885], [72.86804337289432, 19.19393810141074], [72.8729876573157, 19.194007038543447], [72.87429427245908, 19.19392131856948], [72.874592771215, 19.19347932128327], [72.87670677654454, 19.192860261490715], [72.88708096394754, 19.19247795281116], [72.89108099207066, 19.1911927496284], [72.89567505679915, 19.1905407165887], [72.89739074610615, 19.18920418999308], [72.900188201565, 19.185101803305116], [72.90026532634027, 19.17992745689824], [72.89932886046095, 19.17608851126129], [72.89704853111058, 19.173598724180266], [72.89234307961391, 19.163881897533862], [72.8892931325434, 19.162568310504103], [72.88204604572785, 19.16454229471208], [72.8768177227247, 19.167081465375492], [72.87460991362043, 19.170469728932222], [72.8740326555078, 19.175965404131773], [72.86900395780985, 19.175560949744533], [72.8666892011775, 19.17583690460906], [72.85947358166727, 19.174357028006646], [72.85937801443836, 19.17540044836702], [72.85786601629584, 19.175364053992798], [72.85720814738791, 19.17579922202234], [72.85669850108623, 19.177484325046464], [72.85141895870865, 19.176279864289903], [72.85049703721015, 19.176420852781256], [72.84855799227233, 19.177748274002354], [72.8462824883361, 19.178111651352534], [72.84480226232127, 19.178880993774715], [72.8376288439668, 19.179331924011368], [72.8367813550523, 19.17975785254516], [72.83494077659523, 19.17872914675439], [72.82963844164674, 19.178488525409602], [72.8287017273085, 19.175412076074796], [72.82575514379312, 19.17266152011384], [72.82503168581253, 19.169629783440577], [72.81090703479563, 19.155863822118466], [72.80602166083314, 19.149945550367672], [72.8012769551194, 19.138627436149974], [72.79820911877621, 19.13973311088608], [72.79814166002743, 19.142847448466828], [72.79606947408828, 19.14200692084201], [72.79144512105765, 19.144883565171373], [72.78864512503218, 19.14465981010265], [72.78914431195207, 19.147891994873955], [72.78808286220166, 19.151175987140896], [72.78664702412948, 19.15300826869073], [72.78447426612134, 19.154393961726456], [72.78377343322433, 19.157364590876934], [72.78165478995521, 19.158030833689267], [72.7823326113029, 19.159006163711073], [72.7837944825554, 19.15979569884931], [72.7832968239436, 19.161898057224725], [72.78109196183425, 19.164561064974873], [72.78167183885942, 19.167023966786527], [72.78369729183939, 19.16706562337598], [72.7848840948464, 19.166321095399688], [72.78612693727925, 19.166543540994322], [72.78735910519283, 19.16769054993198], [72.78864260359875, 19.16984114263919], [72.79051638304902, 19.171010409129746], [72.79315553435322, 19.171853304068144], [72.7941212651735, 19.174222974801353], [72.79606191636803, 19.18002023890748], [72.79573993795496, 19.18330002435654], [72.79621700971508, 19.187537042031654], [72.79538596401656, 19.190722552827193], [72.79655349411107, 19.193623555831067], [72.79655996348785, 19.194879795570788], [72.79640267525629, 19.196165982768836], [72.79295349455063, 19.195586607346726], [72.79128081563586, 19.193512251881526], [72.78973856549436, 19.193109804761797], [72.78762434552883, 19.194001667062413], [72.78393674575464, 19.193234953661968], [72.78166687279864, 19.19454525158854], [72.78265258798176, 19.199892036780582], [72.78332397461217, 19.200721947373395], [72.78496158983202, 19.20075073729483], [72.78584160748588, 19.202880005619697], [72.78542320529023, 19.20445351110549], [72.78375602811607, 19.206217814370312], [72.78202785561257, 19.206766050171844], [72.78051378922025, 19.206179083345397], [72.78008256022501, 19.20641783748619], [72.78037376220838, 19.210233520765627], [72.78127097229684, 19.211952234806386], [72.78153311806297, 19.213947896613746], [72.78147258675197, 19.21526871078555], [72.78029184517843, 19.217927995254936], [72.78103466322759, 19.218530266993135], [72.78010851040261, 19.219669897230812], [72.78143399888152, 19.220198311955237], [72.78100780427148, 19.222813685532753], [72.7819036233507, 19.223306533615926], [72.78223482795947, 19.224282011553512], [72.78431177944654, 19.224967547666818], [72.79482418034522, 19.22561002669129], [72.79523466840004, 19.224880055424414], [72.7962866992208, 19.22437117671732], [72.79839091969923, 19.224462744991484], [72.80407159763227, 19.222715025779962], [72.80659307064494, 19.221081701639523], [72.80717179762442, 19.219336279260368], [72.80603047739257, 19.217201912024777], [72.8045508503108, 19.21701676362341]]]}}, {"type": "Feature", "id": "R/S", "properties": {"id": "R/S", "display_name": "R/South Ward", "area_km2": 18.31, "ndbi": -0.031, "lst_c": 38.41, "heat_score": 0.427, "priority_score": 0.485, "priority_rank": 16, "seasons": {"winter": {"score": 46.6, "rank": 4, "rec": "Well ventilated. Protect existing open space and wind passages; no new obstruction in or upwind of this ward."}, "summer": {"score": 45.7, "rank": 4, "rec": "Well ventilated. Protect existing open space and wind passages; no new obstruction in or upwind of this ward."}, "monsoon": {"score": 22.5, "rank": 23, "rec": "Critical. Prioritise new ventilation corridors and protect remaining open/green land; strong upwind obstruction control."}}}, "geometry": {"type": "Polygon", "coordinates": [[[72.90243946872954, 19.20138805258228], [72.90235762248182, 19.1972512229951], [72.9014686250776, 19.19636999982831], [72.90032263958875, 19.191536706595297], [72.900188201565, 19.185101803305116], [72.89739074610615, 19.18920418999308], [72.89567505679915, 19.1905407165887], [72.89108099207066, 19.1911927496284], [72.88708096394754, 19.19247795281116], [72.87670677654454, 19.192860261490715], [72.87405111863337, 19.19396182563295], [72.86804337289432, 19.19393810141074], [72.86476110523351, 19.193430040492885], [72.86404404594352, 19.190983985476], [72.86145623997217, 19.191575738831375], [72.85981769390182, 19.19341000933022], [72.86034487433035, 19.194678805557924], [72.85629788714206, 19.194344090220905], [72.85510026176722, 19.193696698223903], [72.85365005786838, 19.193907759703855], [72.85359823489985, 19.19573763236297], [72.85410487045993, 19.1958946779481], [72.85367967357762, 19.19889871899089], [72.85116019957354, 19.19893046821125], [72.85055024848074, 19.194823359705396], [72.84752718177009, 19.194918817529953], [72.84672707022047, 19.195463205034077], [72.84523472331301, 19.19537882782304], [72.84509746654955, 19.196440490947634], [72.84450554346186, 19.196379304242758], [72.84259310874248, 19.199393963432755], [72.83975731513355, 19.200427035383385], [72.83593168717792, 19.200996607394785], [72.83288047157632, 19.199175298919386], [72.83189203587894, 19.199193199240565], [72.83185776411851, 19.198220771617006], [72.83065057882216, 19.19626390789221], [72.82910769463997, 19.197704559772895], [72.82938547238047, 19.19925141060622], [72.8285745372304, 19.19962034391557], [72.82742596424893, 19.20159393807858], [72.82283365032752, 19.204985330236255], [72.81663174559543, 19.20437589741539], [72.81432435094837, 19.204797578909517], [72.81092074060739, 19.206501794524588], [72.81106648882599, 19.208257659497786], [72.81039103099867, 19.20805869177119], [72.81043760199964, 19.208597011285892], [72.80940663406415, 19.20861894756539], [72.80859632412425, 19.20969347085687], [72.80890323374099, 19.21076898995548], [72.80791967928829, 19.211942671992695], [72.80338593559013, 19.213501396860586], [72.80360612465398, 19.214143764868712], [72.82097570727333, 19.215607943809395], [72.83577610658436, 19.21538226681625], [72.83825720373301, 19.215100801569886], [72.84189843316453, 19.21311743501562], [72.84626975037574, 19.212150907070626], [72.84824227449522, 19.212442295692387], [72.85115569289322, 19.21385505365998], [72.85148722147821, 19.213538940276607], [72.85359705591019, 19.213906367714355], [72.85743892272195, 19.212892386883116], [72.86347971147138, 19.21307026621805], [72.86920152157528, 19.21455371401575], [72.87758128601139, 19.214445897263506], [72.87819649857849, 19.21411108997626], [72.88205678747131, 19.217322760435916], [72.8863267241976, 19.21588269234987], [72.88694606004934, 19.211618309012636], [72.89023376423047, 19.21011711059561], [72.89122999860636, 19.210719999061155], [72.89190546319449, 19.210514553244426], [72.89200807928411, 19.20932611608689], [72.89406892866495, 19.208292625750417], [72.89534124779324, 19.2084122304845], [72.89532266373679, 19.207629256284896], [72.89954018018717, 19.204872766176553], [72.90098509967031, 19.201061047758277], [72.90243946872954, 19.20138805258228]]]}}, {"type": "Feature", "id": "H/W", "properties": {"id": "H/W", "display_name": "H/West Ward", "area_km2": 9.03, "ndbi": -0.034, "lst_c": 37.09, "heat_score": 0.179, "priority_score": 0.427, "priority_rank": 19, "seasons": {"winter": {"score": 34.1, "rank": 7, "rec": "Good ventilation. Maintain open space; watch for upwind blocking from high-rise growth."}, "summer": {"score": 32.4, "rank": 10, "rec": "Good ventilation. Maintain open space; watch for upwind blocking from high-rise growth."}, "monsoon": {"score": 35.3, "rank": 12, "rec": "Moderate. Encourage street-level permeability; avoid closing key links upwind."}}}, "geometry": {"type": "Polygon", "coordinates": [[[72.84281273830045, 19.09042293659993], [72.84137017520375, 19.080446418992423], [72.84089031153201, 19.071490849509726], [72.84139560538372, 19.05635631487153], [72.84321839119605, 19.05102687324719], [72.84216200169045, 19.05095091363211], [72.8380395395298, 19.04820790966788], [72.83800472575987, 19.048918813048104], [72.83742853415669, 19.04931836823786], [72.83643607665948, 19.049035441197372], [72.8353933288733, 19.049490250368702], [72.83376997381772, 19.049421665299974], [72.83234398280234, 19.04859771775355], [72.8297582427496, 19.046051798632153], [72.82930659910853, 19.044915446291647], [72.82321084518527, 19.042027144022637], [72.82306006101581, 19.041071746114824], [72.8224762724634, 19.04113139175705], [72.82251058030124, 19.04028906304603], [72.82199240515746, 19.040682139199507], [72.82180332800002, 19.041681129059942], [72.8192416538236, 19.040859086922172], [72.81719551775353, 19.042990930280528], [72.8174007353302, 19.04414714042164], [72.81864041302374, 19.045565883671348], [72.82104862359847, 19.050332615886838], [72.8219487741483, 19.05351923495176], [72.82353310893984, 19.055003535292972], [72.82373727863913, 19.05592948464807], [72.8231823517494, 19.056014792700864], [72.82293539057028, 19.0571395057618], [72.8205264646023, 19.058981027550402], [72.82273574734269, 19.06457573901028], [72.82212390231673, 19.06767488827813], [72.82239284479124, 19.06951681587607], [72.82126159871046, 19.07384750319811], [72.82186920513114, 19.07483186008384], [72.8215146973275, 19.0772932651226], [72.82342097256137, 19.0792695506731], [72.8226690275438, 19.082049041439138], [72.82310058549922, 19.082428026634055], [72.82399399101311, 19.081036574503145], [72.82588438103353, 19.079902554672447], [72.82780476522485, 19.081079929518936], [72.8283522412944, 19.082357533523066], [72.82979389918785, 19.083710297322135], [72.8304069601234, 19.08535501703488], [72.83219604042245, 19.084833430900776], [72.83252167606388, 19.086369670393783], [72.83812470125991, 19.08668018318212], [72.83827451384158, 19.08971976703049], [72.84155136179275, 19.090568325471438], [72.84281273830045, 19.09042293659993]]]}}, {"type": "Feature", "id": "L", "properties": {"id": "L", "display_name": "L Ward", "area_km2": 15.68, "ndbi": -0.011, "lst_c": 41.45, "heat_score": 1.0, "priority_score": 0.889, "priority_rank": 2, "seasons": {"winter": {"score": 18.0, "rank": 19, "rec": "Poor. Create or widen green/open-space corridors aligned with the prevailing wind; restrictive on tall, wide built mass upwind."}, "summer": {"score": 22.1, "rank": 18, "rec": "Poor. Create or widen green/open-space corridors aligned with the prevailing wind; restrictive on tall, wide built mass upwind."}, "monsoon": {"score": 23.2, "rank": 22, "rec": "Critical. Prioritise new ventilation corridors and protect remaining open/green land; strong upwind obstruction control."}}}, "geometry": {"type": "Polygon", "coordinates": [[[72.90800999583514, 19.10813679935135], [72.90672203544351, 19.107071098782136], [72.90500772377564, 19.104595844057663], [72.9045984355914, 19.103276218675326], [72.90198585051738, 19.10139621182792], [72.90058509380465, 19.099448706393133], [72.89968724999879, 19.0989937207435], [72.89876318547611, 19.09601773663906], [72.89934035485678, 19.095765322612795], [72.89957587323283, 19.09382354178344], [72.8967408630275, 19.091625901253224], [72.89594382913512, 19.09157941672605], [72.89570360917047, 19.09213388403478], [72.89497407554613, 19.092284660953332], [72.89489280427627, 19.09121620325642], [72.89434282169148, 19.091030734011177], [72.89441853091117, 19.085716844509754], [72.89267139880033, 19.08508377763321], [72.89375104707763, 19.083350596286458], [72.89387480101428, 19.080984707242354], [72.89144943475145, 19.07241252815212], [72.89106167126711, 19.068427766944772], [72.89271297948025, 19.068168265209597], [72.87835438882729, 19.047969376214642], [72.87667963741228, 19.04902195323889], [72.87595465871983, 19.048854346980622], [72.87370265535037, 19.04989719403494], [72.87199249847235, 19.049946896615626], [72.87103335331473, 19.051127335933586], [72.86888966872263, 19.051412551734174], [72.86752565758519, 19.052584965850084], [72.86355847489955, 19.052333142479792], [72.86951768799241, 19.057401291238342], [72.87304270450824, 19.064220175152087], [72.87247873715381, 19.0662443304956], [72.87336473287941, 19.071338667842284], [72.87255429624318, 19.071692136818424], [72.87212527922105, 19.072449643579063], [72.87113007416112, 19.075677695171798], [72.87492668417586, 19.077497849091305], [72.87593497462402, 19.078926156547727], [72.87011004947676, 19.08171339711606], [72.876004357786, 19.08474544929292], [72.87625884713127, 19.08616816800123], [72.87916214207519, 19.085979225313782], [72.87875585628325, 19.088445010688023], [72.87923990626769, 19.09034468098128], [72.87871554062474, 19.09087921339518], [72.87829398939218, 19.09329371237339], [72.87869635549785, 19.09425735771134], [72.87973888881861, 19.09478648852365], [72.88095059935011, 19.09665121337118], [72.88067780362181, 19.098039205435896], [72.87909397327564, 19.09855461544818], [72.87913205784658, 19.099750187717387], [72.88036102124342, 19.1024131439123], [72.88363868951639, 19.103821046628447], [72.88410851855465, 19.10554127924727], [72.88634332263634, 19.10723793429533], [72.88701856676556, 19.10908808719251], [72.88695614556904, 19.109841162564845], [72.88535763979746, 19.111015732032193], [72.88526909698527, 19.111631022383982], [72.88732048487951, 19.11405720543807], [72.88615949558377, 19.116068710443987], [72.88584846524033, 19.11862968131417], [72.88663299798279, 19.120668222025373], [72.88852442891594, 19.12149115066164], [72.88858820451745, 19.121916548219716], [72.88752958315156, 19.122793159332716], [72.88648004400015, 19.127123732453605], [72.88515758401756, 19.12777263907522], [72.88489398568538, 19.12868014520158], [72.8864084204052, 19.129178410411782], [72.89186735698132, 19.125496342860405], [72.89573103499758, 19.12454880264973], [72.89608736106143, 19.12096082109777], [72.90326588324281, 19.11750212875574], [72.90448683708387, 19.115271696308508], [72.90454830196636, 19.111985039715684], [72.90671379752827, 19.11095860865197], [72.90800999583514, 19.10813679935135]]]}}]}